GLOBALSTAR M024         
1 25883U 99043A   25004.80146766 -.00000025  00000+0  14145-2 0  9994
2 25883  52.0047  29.2771 0001703 180.9869 349.6467 11.10165431 96711
GLOBALSTAR M027         
1 25884U 99043B   25004.66850893 -.00000093  00000+0 -10904-2 0  9997
2 25884  52.0211 102.9253 0021897  88.9499 271.3802 11.04370398123179
GLOBALSTAR M054         
1 25885U 99043C   25004.74309118  .00000016  00000+0  22273-2 0  9991
2 25885  52.0130 257.4921 0004909 262.0682 131.0373 11.39214444100427
GLOBALSTAR M053         
1 25886U 99043D   25004.90461135 -.00000075  00000+0 -19335-3 0  9991
2 25886  51.9942 195.1371 0004048 144.0618   4.4871 11.27662235101021
GLOBALSTAR M058         
1 25907U 99049A   25004.87244127 -.00000081  00000+0  47906-4 0  9999
2 25907  51.9906 185.2668 0001391   8.7257 351.3601 11.93191536522045
GLOBALSTAR M050         
1 25908U 99049B   25004.90732866 -.00000112  00000+0 -26502-3 0  9990
2 25908  51.9957 205.0487 0010333  68.7409  79.6239 12.07447885128465
GLOBALSTAR M033         
1 25909U 99049C   25004.69464345 -.00000102  00000+0 -10422-3 0  9994
2 25909  51.9919  88.7555 0012272 285.3528  74.5963 12.20294267515781
GLOBALSTAR M055         
1 25910U 99049D   25004.76108455 -.00000051  00000+0  36698-3 0  9996
2 25910  52.0018 107.2720 0007842 149.4498 210.6812 12.29418300148186
